STARLINK-1880           
1 47165U 20088AV  21309.10462216  .00017150  00000-0  11664-2 0  9992
2 47165  53.0534 219.5865 0001834  66.8340 293.2842 15.06432584 53101
STARLINK-1881           
1 47166U 20088AW  21308.96826611  .00051921  00000-0  17235-2 0  9993
2 47166  53.0490 182.1359 0001476  67.6411 292.4745 15.30745219 53625
STARLINK-1884           
1 47167U 20088AX  21308.95717736  .00002262  00000-0  17076-3 0  9998
2 47167  53.0533 220.2590 0006690   1.3791 358.7216 15.06399163 53135
STARLINK-1885           
1 47168U 20088AY  21309.08617508  .00003347  00000-0  24345-3 0  9992
2 47168  53.0540 219.6717 0001688  71.6400 288.4772 15.06408340 53152
STARLINK-1887           
1 47170U 20088BA  21309.14146741  .00004156  00000-0  29763-3 0  9996
2 47170  53.0532 219.4269 0001799  65.2322 294.8854 15.06414666 53151
STARLINK-1888           
1 47171U 20088BB  21308.89545083  .00009022  00000-0  62368-3 0  9995
2 47171  53.0548 210.5299 0001476  66.9669 293.1475 15.06408287 52969
STARLINK-1889           
1 47172U 20088BC  21309.09408958  .00148272  00000-0  18989-2 0  9998
2 47172  53.0547 206.1599 0001106 110.0733 250.0398 15.58208895 53334
STARLINK-1890           
1 47173U 20088BD  21308.95623574  .00001356  00000-0  10990-3 0  9992
2 47173  53.0533 220.2566 0001304  70.8624 289.2506 15.06396996 53128
STARLINK-1891           
1 47174U 20088BE  21309.16360858  .00002955  00000-0  21725-3 0  9994
2 47174  53.0548 219.3280 0001687  63.4684 296.6478 15.06385685 53151
STARLINK-1895           
1 47175U 20088BF  21308.89636338  .00001842  00000-0  14253-3 0  9995
2 47175  53.0548 200.5094 0001662  57.8964 302.2186 15.06398640 53108
STARLINK-1907           
1 47177U 20088BH  21309.07973553  .00003545  00000-0  25667-3 0  9994
2 47177  53.0522 209.7034 0001680  60.5221 299.5936 15.06412350 53289
STARLINK-1912           
1 47178U 20088BJ  21309.12672494  .00004572  00000-0  32556-3 0  9997
2 47178  53.0540 219.4768 0001744  64.1345 295.9824 15.06408900 52854
STARLINK-1913           
1 47179U 20088BK  21309.04841124  .00010969  00000-0  75377-3 0  9992
2 47179  53.0529 229.8378 0001876  67.6032 292.5155 15.06418371 52955
STARLINK-1927           
1 47181U 20088BM  21308.88899372  .00008256  00000-0  57233-3 0  9991
2 47181  53.0541 200.5512 0001669  81.8166 278.3012 15.06412197 53106
STARLINK-1952           
1 47349U 21005A   21309.01381169  .00045774  00000-0  35253-3 0  9997
2 47349  53.0496 315.2918 0003699  10.9403 349.1694 15.71541524 45054
STARLINK-2011           
1 47350U 21005B   21308.46326957  .00003161  00000-0  23100-3 0  9993
2 47350  53.0471 342.5189 0001492  76.1138 284.0017 15.06400237 44632
STARLINK-2017           
1 47351U 21005C   21308.69178634  .00000798  00000-0  72472-4 0  9996
2 47351  53.0527 301.4336 0001503  64.6867 295.4277 15.06409024 44555
STARLINK-2034           
1 47352U 21005D   21309.10830898  .00003592  00000-0  25985-3 0  9992
2 47352  53.0551 339.5659 0001294  90.6860 269.4277 15.06410956 44717
STARLINK-2045           
1 47353U 21005E   21309.12996049  .00008114  00000-0  56278-3 0  9990
2 47353  53.0544 284.4600 0001516  89.2613 270.8549 15.06411899 45492
STARLINK-2046           
1 47354U 21005F   21309.14285770  .00000039  00000-0  21538-4 0  9995
2 47354  53.0547 304.4224 0001513  76.1476 283.9681 15.06398006 45216
STARLINK-2047           
1 47355U 21005G   21309.08249570  .00013317  00000-0  91078-3 0  9995
2 47355  53.0526 289.6766 0001810  65.8531 294.2647 15.06417333 45410
STARLINK-2049           
1 47356U 21005H   21308.41442937  .00001560  00000-0  12363-3 0  9991
2 47356  53.0555 312.6920 0001577  67.5431 292.5725 15.06399621 45327
STARLINK-2050           
1 47357U 21005J   21308.48906296  .00003760  00000-0  27114-3 0  9996
2 47357  53.0526 342.3640 0001382  84.4533 275.6614 15.06409410 44911
STARLINK-2055           
1 47358U 21005K   21309.08895090  .00001935  00000-0  14873-3 0  9993
2 47358  53.0555 309.6542 0001327  68.9267 291.1863 15.06400984 45424
STARLINK-2069           
1 47359U 21005L   21308.56877117  .00003137  00000-0  22930-3 0  9995
2 47359  53.0549 336.9978 0001391  74.8671 285.2472 15.06410699 44704
STARLINK-2070           
1 47360U 21005M   21309.03965639 -.00000373  00000-0 -61672-5 0  9996
2 47360  53.0540 304.8839 0001509  66.3322 293.7826 15.06395376 44540
STARLINK-2071           
1 47361U 21005N   21309.09632800  .00005222  00000-0  36907-3 0  9991
2 47361  53.0527 309.6102 0001637  71.0779 289.0387 15.06411896 45427
STARLINK-2076           
1 47362U 21005P   21308.61071188  .00001972  00000-0  15127-3 0  9994
2 47362  53.0550 341.8118 0001489  79.0315 281.0841 15.06398052 43982
STARLINK-2077           
1 47363U 21005Q   21309.07882383  .00006721  00000-0  46961-3 0  9990
2 47363  53.0539 339.7042 0001573  67.3101 292.8054 15.06405657 44054
STARLINK-2079           
1 47364U 21005R   21308.74710303  .00694940  00000-0  20791-1 0  9993
2 47364  53.0560 340.1230 0002270  72.8556 287.2692 15.31932065 44012
STARLINK-2080           
1 47365U 21005S   21309.08628641  .00085531  00000-0  60285-3 0  9999
2 47365  53.0495 229.8310 0006152 293.9678  66.0695 15.73360228 46252
STARLINK-2081           
1 47366U 21005T   21309.10461989  .00004538  00000-0  32324-3 0  9994
2 47366  53.0561 339.5853 0001209  70.5828 289.5292 15.06412437 44059
STARLINK-2082           
1 47367U 21005U   21308.46695685  .00003493  00000-0  25328-3 0  9990
2 47367  53.0562 342.4613 0001304  84.5228 275.5909 15.06403566 43965
STARLINK-2084           
1 47368U 21005V   21308.45957661  .00002902  00000-0  21361-3 0  9992
2 47368  53.0550 342.4858 0001324  71.6497 288.4636 15.06401623 44908
STARLINK-2085           
1 47369U 21005W   21308.46511739  .00003952  00000-0  28407-3 0  9990
2 47369  53.0546 322.4654 0001422  71.2075 288.9068 15.06399135 45205
STARLINK-2086           
1 47370U 21005X   21309.08619573  .00005733  00000-0  40337-3 0  9991
2 47370  53.0600 299.6517 0001536  68.5544 291.5609 15.06405586 44621
STARLINK-2088           
1 47371U 21005Y   21308.47432749  .00002788  00000-0  20593-3 0  9991
2 47371  53.0553 342.4171 0001245  78.9103 281.2026 15.06404849 43961
STARLINK-2089           
1 47372U 21005Z   21308.57151996  .00001702  00000-0  13316-3 0  9995
2 47372  53.0556 336.9680 0001488  70.7116 289.4034 15.06399011 44044
STARLINK-2092           
1 47373U 21005AA  21309.06776672  .00006510  00000-0  45537-3 0  9997
2 47373  53.0540 339.7473 0001318  77.3873 282.7263 15.06411068 44052
STARLINK-2093           
1 47374U 21005AB  21309.08249125  .00001834  00000-0  14193-3 0  9996
2 47374  53.0538 339.6957 0001190  80.0124 280.1000 15.06412881 44059
STARLINK-2094           
1 47375U 21005AC  21308.36374986  .00000864  00000-0  76890-4 0  9996
2 47375  53.0572 342.9219 0001195  67.8622 292.2494 15.06392492 44907
STARLINK-2096           
1 47376U 21005AD  21309.09724563  .00003278  00000-0  23885-3 0  9995
2 47376  53.0572 339.6228 0001269  75.9769 284.1361 15.06400318 44051
STARLINK-2097           
1 47377U 21005AE  21308.61878957  .00001222  00000-0  98849-4 0  9990
2 47377  53.0549 341.7184 0001618  62.4105 297.7048 15.07215031 43984
STARLINK-2098           
1 47378U 21005AF  21309.14147960  .00005375  00000-0  37940-3 0  9990
2 47378  53.0555 299.4177 0001637  70.9194 289.1972 15.06408137 44629
STARLINK-2099           
1 47379U 21005AG  21309.14885747  .00003484  00000-0  25268-3 0  9992
2 47379  53.0540 299.3815 0001333  75.0101 285.1035 15.06402674 44625
STARLINK-2100           
1 47380U 21005AH  21308.84569237  .00003624  00000-0  26205-3 0  9991
2 47380  53.0546 310.7587 0001391  79.6410 280.4735 15.06398002 45382
STARLINK-2101           
1 47381U 21005AJ  21308.85348996  .00002863  00000-0  21103-3 0  9996
2 47381  53.0548 315.7225 0001290  68.6323 291.4803 15.06401240 45330
STARLINK-2102           
1 47382U 21005AK  21309.17005116  .00002770  00000-0  20475-3 0  9995
2 47382  53.0526 309.2873 0001349  74.3345 285.7793 15.06399825 45426
STARLINK-2103           
1 47383U 21005AL  21308.39229067  .00001730  00000-0  13502-3 0  9990
2 47383  53.0549 302.7862 0001329  77.1504 282.9633 15.06402185 44519
STARLINK-2104           
1 47384U 21005AM  21308.99954969  .00003037  00000-0  22267-3 0  9993
2 47384  53.0555 310.0641 0001578  68.2331 291.8826 15.06398622 45074
STARLINK-2105           
1 47385U 21005AN  21309.15162788  .00003399  00000-0  24698-3 0  9994
2 47385  53.0551 309.3793 0001536  84.5553 275.5611 15.06400418 45091
STARLINK-2106           
1 47386U 21005AP  21308.38495292  .00002310  00000-0  17394-3 0  9995
2 47386  53.0555 312.8169 0001406  73.7021 286.4122 15.06391082 44990
STARLINK-2108           
1 47387U 21005AQ  21308.50380770  .00001989  00000-0  15235-3 0  9997
2 47387  53.0564 342.2855 0001280  76.7700 283.3431 15.06404340 43964
STARLINK-2109           
1 47388U 21005AR  21309.11567304  .00004294  00000-0  30685-3 0  9994
2 47388  53.0554 339.5403 0001281  82.4348 277.6787 15.06417299 45010
STARLINK-2110           
1 47389U 21005AS  21309.02905489  .00004913  00000-0  34834-3 0  9993
2 47389  53.0527 319.9180 0001747  63.7533 296.3636 15.06420082 44328
STARLINK-2111           
1 47390U 21005AT  21308.49274884  .00001517  00000-0  12067-3 0  9994
2 47390  53.0566 342.3259 0001125  37.0338 323.0728 15.06412751 43960
STARLINK-2112           
1 47391U 21005AU  21309.09907120  .00011625  00000-0  79754-3 0  9995
2 47391  53.0535 309.6022 0001612  73.1491 286.9675 15.06421756 45081
STARLINK-2113           
1 47392U 21005AV  21309.10003128  .00013059  00000-0  89346-3 0  9994
2 47392  53.0526 309.5976 0001116  65.9589 294.1516 15.06422123 45089
STARLINK-2114           
1 47393U 21005AW  21309.09215950  .00007940  00000-0  55109-3 0  9993
2 47393  53.0487 284.6551 0001373  87.8061 272.3085 15.06414430 44823
